COSMOS 2425 (716)       
1 29670U 06062A   18169.64955031 -.00000028  00000-0  10000-3 0  9991
2 29670  65.2799 292.4869 0020467 348.8917 125.0115  2.13105041 89349
COSMOS 2426 (717)       
1 29671U 06062B   18170.20558324 -.00000034  00000-0  10000-3 0  9997
2 29671  65.2962 292.5665 0018967 163.1512 233.0557  2.13102714 89364
COSMOS 2433 (720)       
1 32275U 07052A   18169.88879874 -.00000063  00000-0  10000-3 0  9991
2 32275  65.6873  53.3059 0002213 301.9710 186.8009  2.13104564 82862
COSMOS 2432 (719)       
1 32276U 07052B   18170.40298167 -.00000067  00000-0  10000-3 0  9996
2 32276  65.7020  53.3639 0012220 340.2447 134.9668  2.13104080 82873
COSMOS 2434 (721)       
1 32393U 07065A   18169.53740772 -.00000027  00000-0  00000+0 0  9997
2 32393  64.8940 291.4654 0005349 113.0018 354.2516  2.13103029 81566
COSMOS 2436 (723)       
1 32395U 07065C   18170.09884045 -.00000033  00000-0  10000-3 0  9996
2 32395  64.9030 291.4963 0014491   5.0879 223.3868  2.13104433 81505
COSMOS 2456 (730)       
1 36111U 09070A   18170.24591853  .00000083  00000-0  00000+0 0  9992
2 36111  64.1866 171.0316 0006683 300.4374 162.6207  2.13103024 66246
COSMOS 2457 (733)       
1 36112U 09070B   18169.70851439  .00000079  00000-0  00000-0 0  9997
2 36112  64.1688 170.9603 0005757 195.8665 341.7816  2.13101637 66239
COSMOS 2458 (734)       
1 36113U 09070C   18169.70824032  .00000079  00000-0  10000-3 0  9991
2 36113  64.1742 170.9717 0003049 314.3461 270.8123  2.13096857 66231
COSMOS 2459 (731)       
1 36400U 10007A   18169.65452624 -.00000062  00000-0  10000-3 0  9993
2 36400  65.5977  52.3724 0028167 353.7111 174.2642  2.13102292 64583
COSMOS 2461 (735)       
1 36401U 10007B   18169.65694252 -.00000062  00000-0  10000-3 0  9999
2 36401  65.5902  52.3488 0008207  58.4359  21.9880  2.13102373 64587
COSMOS 2460 (732)       
1 36402U 10007C   18169.56923758 -.00000061  00000-0  10000-3 0  9995
2 36402  65.5808  52.3181 0001972  25.7252  28.0340  2.13101690 64584
COSMOS 2464 (736)       
1 37139U 10041C   18170.13098220 -.00000034  00000-0  00000+0 0  9998
2 37139  64.4974 291.2491 0023450  15.4117  55.0130  2.13102794 60661
COSMOS 2471 (701K)      
1 37372U 11009A   18169.70808794 -.00000062  00000-0  00000-0 0  9990
2 37372  65.5774  52.2599 0007123 237.5666  66.7054  2.13107613 56854
COSMOS 2474 (742)       
1 37829U 11055A   18169.61981934  .00000078  00000-0  00000+0 0  9991
2 37829  64.5106 171.7707 0011031 253.9335 306.9466  2.13101990 52220
COSMOS 2476 (744)       
1 37867U 11064A   18170.11047957  .00000082  00000-0  00000+0 0  9993
2 37867  64.4904 171.8164 0020593 245.6964  17.6456  2.13102039 51582
COSMOS 2477 (745)       
1 37868U 11064B   18169.72362350  .00000079  00000-0  00000-0 0  9993
2 37868  64.4986 171.8776 0018424 247.3223 258.1295  2.13101867 51535
COSMOS 2475 (743)       
1 37869U 11064C   18169.65330282  .00000079  00000-0  00000-0 0  9995
2 37869  64.5060 171.8747 0023085 268.7280 139.4845  2.13102132 51546
COSMOS 2485 (747)       
1 39155U 13019A   18170.30238139  .00000084  00000-0  00000+0 0  9994
2 39155  64.6596 171.9200 0020926 241.1186 214.3174  2.13102051 40060
COSMOS 2492 (754)       
1 39620U 14012A   18169.85491791 -.00000064  00000-0  10000-3 0  9992
2 39620  65.4698  52.1946 0015403 335.1852 171.7429  2.13103384 33009
COSMOS 2500 (755)       
1 40001U 14032A   18170.50392572 -.00000069  00000-0  00000+0 0  9990
2 40001  65.4107  52.1413 0004221 207.1574 299.9430  2.13102913 31238
COSMOS 2501 (702K)      
1 40315U 14075A   18169.69924819 -.00000030  00000-0  00000-0 0  9997
2 40315  64.2226 292.4770 0015656 203.7966 207.5932  2.13098724 27625
COSMOS 2514 (751)       
1 41330U 16008A   18169.68322394 -.00000063  00000-0  00000-0 0  9998
2 41330  65.2134  52.2218 0007617 219.0728 199.2972  2.13103317 18384
COSMOS 2516 (753)       
1 41554U 16032A   18169.72061044 -.00000030  00000-0  00000+0 0  9993
2 41554  64.4433 292.3414 0011808 211.6958 126.4807  2.13101696 15980
COSMOS 2522 (752)       
1 42939U 17055A   18170.45725767 -.00000038  00000-0  00000+0 0  9996
2 42939  64.6738 292.2825 0006593 238.2604 171.4740  2.13101906  5766
